[{"OBJECT_NAME":"YAOGAN-35 01C","OBJECT_ID":"2021-101D","EPOCH":"2026-03-09T23:21:58.673664","MEAN_MOTION":15.23336833,"ECCENTRICITY":0.00093494,"INCLINATION":35.0028,"RA_OF_ASC_NODE":168.8735,"ARG_OF_PERICENTER":247.0598,"MEAN_ANOMALY":112.9131,"EPHEMERIS_TYPE":0,"CLASSIFICATION_TYPE":"U","NORAD_CAT_ID":49393,"ELEMENT_SET_NO":999,"REV_AT_EPOCH":24187,"BSTAR":0.0007564285,"MEAN_MOTION_DOT":0.00018436,"MEAN_MOTION_DDOT":0},{"OBJECT_NAME":"STARLINK-30325","OBJECT_ID":"2023-129V","EPOCH":"2026-03-09T12:16:10.040448","MEAN_MOTION":15.26741436,"ECCENTRICITY":9.292e-5,"INCLINATION":43.0013,"RA_OF_ASC_NODE":119.0461,"ARG_OF_PERICENTER":281.5541,"MEAN_ANOMALY":78.5206,"EPHEMERIS_TYPE":0,"CLASSIFICATION_TYPE":"U","NORAD_CAT_ID":57717,"ELEMENT_SET_NO":999,"REV_AT_EPOCH":14065,"BSTAR":-1.7614466e-5,"MEAN_MOTION_DOT":-7.32e-6,"MEAN_MOTION_DDOT":0}]
